{
"type": "FeatureCollection",
"name": "my_file_gdf_new",
"crs": { "type": "name", "properties": { "name": "urn:ogc:def:crs:OGC:1.3:CRS84" } },
"features": [
{ "type": "Feature", "properties": { "comments": null, "Chart": "GB1013", "Panel_Name": "Helford River", "Pan_Scale": 12500, "Panel_ID": 0, "Paper_Size": "A2", "GTL": "Ash" }, "geometry": { "type": "Polygon", "coordinates": [ [ [ -5.215707645263512, 50.08053777304572 ], [ -5.215707645263512, 50.114221792089701 ], [ -5.118197645257523, 50.114221792089701 ], [ -5.118197645257523, 50.08053777304572 ], [ -5.215707645263512, 50.08053777304572 ] ] ] } },
{ "type": "Feature", "properties": { "comments": null, "Chart": "GB1009", "Panel_Name": "Lizard Point", "Pan_Scale": 15000, "Panel_ID": 0, "Paper_Size": "A2", "GTL": "Ash" }, "geometry": { "type": "Polygon", "coordinates": [ [ [ -5.270253859507963, 49.978790000040625 ], [ -5.153242192845138, 49.978790000040625 ], [ -5.153242192845138, 49.938333333317743 ], [ -5.270253859507963, 49.938333333317743 ], [ -5.270253859507963, 49.978790000040625 ] ] ] } },
{ "type": "Feature", "properties": { "comments": "75% of source is 22k - possible infill in future", "Chart": "GB1010", "Panel_Name": "Cadgwith to Black Head", "Pan_Scale": 15000, "Panel_ID": 0, "Paper_Size": "A2", "GTL": "Ash" }, "geometry": { "type": "Polygon", "coordinates": [ [ [ -5.190159940951095, 50.012198683168435 ], [ -5.073148274288271, 50.012198683168435 ], [ -5.073148274288271, 49.971770263448526 ], [ -5.190159940951095, 49.971770263448526 ], [ -5.190159940951095, 50.012198683168435 ] ] ] } },
{ "type": "Feature", "properties": { "comments": null, "Chart": "GB1011", "Panel_Name": "Coverack, Porthoustock and The Manacles", "Pan_Scale": 15000, "Panel_ID": 0, "Paper_Size": "A2", "GTL": "Ash" }, "geometry": { "type": "Polygon", "coordinates": [ [ [ -5.102781684724254, 50.062741778541941 ], [ -5.021291684771403, 50.062741778541941 ], [ -5.021291684771403, 50.003507974636669 ], [ -5.102781684724254, 50.003507974636669 ], [ -5.102781684724254, 50.062741778541941 ] ] ] } },
{ "type": "Feature", "properties": { "comments": null, "Chart": "GB1014", "Panel_Name": "Falmouth Bay", "Pan_Scale": 15000, "Panel_ID": 0, "Paper_Size": "A2", "GTL": "Ash" }, "geometry": { "type": "Polygon", "coordinates": [ [ [ -5.096327341130429, 50.149165661175992 ], [ -4.979315674467605, 50.149165661175992 ], [ -4.979315674467605, 50.108853188041806 ], [ -5.096327341130429, 50.108853188041806 ], [ -5.096327341130429, 50.149165661175992 ] ] ] } },
{ "type": "Feature", "properties": { "comments": null, "Chart": "GB1012", "Panel_Name": "Porthallow and Approaches to Helford River", "Pan_Scale": 15000, "Panel_ID": 0, "Paper_Size": "A2", "GTL": "Ash" }, "geometry": { "type": "Polygon", "coordinates": [ [ [ -5.129356874452372, 50.114980765148758 ], [ -5.047866874499523, 50.114980765148758 ], [ -5.047866874499523, 50.055795648060496 ], [ -5.129356874452372, 50.055795648060496 ], [ -5.129356874452372, 50.114980765148758 ] ] ] } },
{ "type": "Feature", "properties": { "comments": null, "Chart": "GB1016", "Panel_Name": "Falmouth Inner Harbour", "Pan_Scale": 5000, "Panel_ID": 0, "Paper_Size": "A2", "GTL": "Ash" }, "geometry": { "type": "Polygon", "coordinates": [ [ [ -5.072794978876507, 50.163590067016862 ], [ -5.033751645664074, 50.163590067016862 ], [ -5.033751645664074, 50.150014337636883 ], [ -5.072794978876507, 50.150014337636883 ], [ -5.072794978876507, 50.163590067016862 ] ] ] } },
{ "type": "Feature", "properties": { "comments": null, "Chart": "GB1017", "Panel_Name": "Penryn", "Pan_Scale": 5000, "Panel_ID": 0, "Paper_Size": "A2", "GTL": "Ash" }, "geometry": { "type": "Polygon", "coordinates": [ [ [ -5.102505784845913, 50.170837902567982 ], [ -5.063462451633481, 50.170837902567982 ], [ -5.063462451633481, 50.157264242968694 ], [ -5.102505784845913, 50.157264242968694 ], [ -5.102505784845913, 50.170837902567982 ] ] ] } },
{ "type": "Feature", "properties": { "comments": "Needs supression in overlap with Falmouth Harbour", "Chart": "GB1015", "Panel_Name": "Carrick Roads & St Mawes", "Pan_Scale": 12500, "Panel_ID": 0, "Paper_Size": "A2", "GTL": "Ash" }, "geometry": { "type": "Polygon", "coordinates": [ [ [ -5.060425334301667, 50.186713731809256 ], [ -4.992498667661338, 50.186713731809256 ], [ -4.992498667661338, 50.137312589606353 ], [ -5.060425334301667, 50.137312589606353 ], [ -5.060425334301667, 50.186713731809256 ] ] ] } },
{ "type": "Feature", "properties": { "comments": "includes new coverage of Penpol Creek - customer feedback", "Chart": "GB1018", "Panel_Name": "River Fal Carrick Roads to Turnaware Point", "Pan_Scale": 12500, "Panel_ID": 0, "Paper_Size": "A2", "GTL": "Ash" }, "geometry": { "type": "Polygon", "coordinates": [ [ [ -5.10274558442146, 50.180343306378902 ], [ -5.10274558442146, 50.21395674370153 ], [ -5.005235584415471, 50.21395674370153 ], [ -5.005235584415471, 50.180343306378902 ], [ -5.10274558442146, 50.180343306378902 ] ] ] } },
{ "type": "Feature", "properties": { "comments": "to sit on Carrick Roads to Turnaware Pt Chart,", "Chart": "GB1018", "Panel_Name": "Continuation Mylor Creek", "Pan_Scale": 12500, "Panel_ID": 1, "Paper_Size": "A2", "GTL": "Ash" }, "geometry": { "type": "Polygon", "coordinates": [ [ [ -5.082294466994384, 50.184977966821066 ], [ -5.043426615834705, 50.184977966821066 ], [ -5.043426615834705, 50.17644641285036 ], [ -5.082273108616071, 50.176440361559209 ], [ -5.082294466994384, 50.184977966821066 ] ] ] } },
{ "type": "Feature", "properties": { "comments": null, "Chart": "GB1019", "Panel_Name": "River Fal to Truro River", "Pan_Scale": 12500, "Panel_ID": 0, "Paper_Size": "A2", "GTL": "Ash" }, "geometry": { "type": "Polygon", "coordinates": [ [ [ -5.05080703394094, 50.208168808189264 ], [ -5.05080703394094, 50.241762549686932 ], [ -4.95329703393495, 50.241762549686932 ], [ -4.95329703393495, 50.208168808189264 ], [ -5.05080703394094, 50.208168808189264 ] ] ] } },
{ "type": "Feature", "properties": { "comments": "potential to include larger scale of Sunny Corner to Tidal Barrier in future - Previous HM request", "Chart": "GB1020", "Panel_Name": "Truro River and Tresillian River", "Pan_Scale": 12500, "Panel_ID": 0, "Paper_Size": "A2", "GTL": "Ash" }, "geometry": { "type": "Polygon", "coordinates": [ [ [ -5.056128531141449, 50.282183147223066 ], [ -4.988201864501121, 50.282183147223066 ], [ -4.988201864501121, 50.232881332621361 ], [ -5.056128531141449, 50.232881332621361 ], [ -5.056128531141449, 50.282183147223066 ] ] ] } },
{ "type": "Feature", "properties": { "comments": "Sheet of plans (with Par and Charlestown)", "Chart": "GB1025", "Panel_Name": "Mevagissey", "Pan_Scale": 3000, "Panel_ID": 3, "Paper_Size": "A2", "GTL": "Ash" }, "geometry": { "type": "Polygon", "coordinates": [ [ [ -4.787333333375856, 50.271326666685184 ], [ -4.780296666635727, 50.271326666685184 ], [ -4.780296666635727, 50.267416666707888 ], [ -4.787333333375856, 50.267416666707888 ], [ -4.787333333375856, 50.271326666685184 ] ] ] } },
{ "type": "Feature", "properties": { "comments": "Sheet of plans (with Par and Mevagissey)", "Chart": "GB1025", "Panel_Name": "Charlestown", "Pan_Scale": 5000, "Panel_ID": 2, "Paper_Size": "A2", "GTL": "Ash" }, "geometry": { "type": "Polygon", "coordinates": [ [ [ -4.759999999941709, 50.333333333329847 ], [ -4.748256666598546, 50.333333333329847 ], [ -4.748256666598546, 50.326878333375504 ], [ -4.759999999941709, 50.326878333375504 ], [ -4.759999999941709, 50.333333333329847 ] ] ] } },
{ "type": "Feature", "properties": { "comments": "Sheet of plans (with Mevagissey and Charlestown)", "Chart": "GB1025", "Panel_Name": "Par", "Pan_Scale": 7500, "Panel_ID": 1, "Paper_Size": "A2", "GTL": "Ash" }, "geometry": { "type": "Polygon", "coordinates": [ [ [ -4.720166666609278, 50.348333333328789 ], [ -4.680000000000725, 50.348333333328789 ], [ -4.680000000000725, 50.328106666694005 ], [ -4.720166666609278, 50.328106666694005 ], [ -4.720166666609278, 50.348333333328789 ] ] ] } },
{ "type": "Feature", "properties": { "comments": "Plan on Fowey Harbour Sheet", "Chart": "GB1026", "Panel_Name": "River Fowey Saint Minnows to Lostwithiel", "Pan_Scale": 15000, "Panel_ID": 2, "Paper_Size": "A2", "GTL": "Ash" }, "geometry": { "type": "Polygon", "coordinates": [ [ [ -4.669500000041064, 50.409000000030431 ], [ -4.651333333321143, 50.409000000030431 ], [ -4.651333333321143, 50.38133333329904 ], [ -4.669500000041064, 50.38133333329904 ], [ -4.669500000041064, 50.409000000030431 ] ] ] } },
{ "type": "Feature", "properties": { "comments": "Plan on Fowey Harbour Sheet", "Chart": "GB1026", "Panel_Name": "River Fowey Wisemans Point to Saint Minnows", "Pan_Scale": 15000, "Panel_ID": 1, "Paper_Size": "A2", "GTL": "Ash" }, "geometry": { "type": "Polygon", "coordinates": [ [ [ -4.658333333388215, 50.384999999992885 ], [ -4.616333333267682, 50.384999999992885 ], [ -4.616333333267682, 50.345833333303645 ], [ -4.658333333388215, 50.345833333303645 ], [ -4.658333333388215, 50.384999999992885 ] ] ] } },
{ "type": "Feature", "properties": { "comments": null, "Chart": "GB1026", "Panel_Name": "Fowey Harbour", "Pan_Scale": 7500, "Panel_ID": 0, "Paper_Size": "A2", "GTL": "Ash" }, "geometry": { "type": "Polygon", "coordinates": [ [ [ -4.659403333344103, 50.318333333363476 ], [ -4.659403333344103, 50.347999999971989 ], [ -4.618333333347249, 50.347999999971989 ], [ -4.618333333347249, 50.318333333363476 ], [ -4.659403333344103, 50.318333333363476 ] ] ] } },
{ "type": "Feature", "properties": { "comments": "Sheet of plans (With E&W Rivers and Polperro). Needs a bit of infill to complete coverage", "Chart": "GB1029", "Panel_Name": "Looe", "Pan_Scale": 5000, "Panel_ID": 1, "Paper_Size": "A2", "GTL": "Ash" }, "geometry": { "type": "Polygon", "coordinates": [ [ [ -4.459999999986837, 50.357249999990415 ], [ -4.43679500006753, 50.357249999990415 ], [ -4.43679500006753, 50.343764999971334 ], [ -4.459999999986837, 50.343764999971334 ], [ -4.459999999986837, 50.357249999990415 ] ] ] } },
{ "type": "Feature", "properties": { "comments": "Sheet of plans (With Looe and Polperro)", "Chart": "GB1029", "Panel_Name": "East and West Looe Rivers", "Pan_Scale": 12500, "Panel_ID": 2, "Paper_Size": "A2", "GTL": "Ash" }, "geometry": { "type": "Polygon", "coordinates": [ [ [ -4.488333333390297, 50.375000000025707 ], [ -4.450000000011832, 50.375000000025707 ], [ -4.450000000011832, 50.355000000028518 ], [ -4.488333333390297, 50.355000000028518 ], [ -4.488333333390297, 50.375000000025707 ] ] ] } },
{ "type": "Feature", "properties": { "comments": "Sheet of plans (With Looe and E&W Rivers). Needs a bit of infill to complete coverage", "Chart": "GB1029", "Panel_Name": "Polperro", "Pan_Scale": 3000, "Panel_ID": 3, "Paper_Size": "A2", "GTL": "Ash" }, "geometry": { "type": "Polygon", "coordinates": [ [ [ -4.518833333299967, 50.331750000022552 ], [ -4.509638333311532, 50.331750000022552 ], [ -4.509638333311532, 50.328766666648356 ], [ -4.518833333299967, 50.328766666648356 ], [ -4.518833333299967, 50.331750000022552 ] ] ] } },
{ "type": "Feature", "properties": { "comments": null, "Chart": "GB1021", "Panel_Name": "Saint Anthony Head to Nare Head", "Pan_Scale": 25000, "Panel_ID": 0, "Paper_Size": "A2", "GTL": "Ash" }, "geometry": { "type": "Polygon", "coordinates": [ [ [ -5.019166666735784, 50.208333333306896 ], [ -4.882865000038695, 50.208333333306896 ], [ -4.882865000038695, 50.109441666650298 ], [ -5.019166666735784, 50.109441666650298 ], [ -5.019166666735784, 50.208333333306896 ] ] ] } },
{ "type": "Feature", "properties": { "comments": null, "Chart": "GB1022", "Panel_Name": "Nare Head to Dodman Point", "Pan_Scale": 25000, "Panel_ID": 0, "Paper_Size": "A2", "GTL": "Ash" }, "geometry": { "type": "Polygon", "coordinates": [ [ [ -4.936666666730575, 50.239999999986971 ], [ -4.740694999959095, 50.239999999986971 ], [ -4.740694999959095, 50.172573333301649 ], [ -4.936666666730575, 50.172573333301649 ], [ -4.936666666730575, 50.239999999986971 ] ] ] } },
{ "type": "Feature", "properties": { "comments": null, "Chart": "GB1023", "Panel_Name": "Dodman Point to Black Head", "Pan_Scale": 25000, "Panel_ID": 0, "Paper_Size": "A2", "GTL": "Ash" }, "geometry": { "type": "Polygon", "coordinates": [ [ [ -4.808333333295178, 50.300000000038033 ], [ -4.671771666668086, 50.300000000038033 ], [ -4.671771666668086, 50.201109999988667 ], [ -4.808333333295178, 50.201109999988667 ], [ -4.808333333295178, 50.300000000038033 ] ] ] } },
{ "type": "Feature", "properties": { "comments": null, "Chart": "GB1024", "Panel_Name": "Black Head to Pencarrow Head", "Pan_Scale": 25000, "Panel_ID": 0, "Paper_Size": "A2", "GTL": "Ash" }, "geometry": { "type": "Polygon", "coordinates": [ [ [ -4.793090000059424, 50.349999999994765 ], [ -4.596666666734739, 50.349999999994765 ], [ -4.596666666734739, 50.282575000001692 ], [ -4.793090000059424, 50.282575000001692 ], [ -4.793090000059424, 50.349999999994765 ] ] ] } },
{ "type": "Feature", "properties": { "comments": null, "Chart": "GB1027", "Panel_Name": "Pencarrow Head to Looe Island", "Pan_Scale": 25000, "Panel_ID": 0, "Paper_Size": "A2", "GTL": "Ash" }, "geometry": { "type": "Polygon", "coordinates": [ [ [ -4.624999999997253, 50.345833333303645 ], [ -4.428593333329326, 50.345833333303645 ], [ -4.428593333329326, 50.27840833336294 ], [ -4.624999999997253, 50.27840833336294 ], [ -4.624999999997253, 50.345833333303645 ] ] ] } },
{ "type": "Feature", "properties": { "comments": null, "Chart": "GB1028", "Panel_Name": "Looe Bay", "Pan_Scale": 25000, "Panel_ID": 0, "Paper_Size": "A2", "GTL": "Ash" }, "geometry": { "type": "Polygon", "coordinates": [ [ [ -4.454999999999335, 50.369999999967554 ], [ -4.31823833335019, 50.369999999967554 ], [ -4.31823833335019, 50.271110000021373 ], [ -4.454999999999335, 50.271110000021373 ], [ -4.454999999999335, 50.369999999967554 ] ] ] } },
{ "type": "Feature", "properties": { "comments": "Possibly needs supression in 12k ENC area", "Chart": "GB1030", "Panel_Name": "Whitsand Bay", "Pan_Scale": 25000, "Panel_ID": 0, "Paper_Size": "A2", "GTL": "Ash" }, "geometry": { "type": "Polygon", "coordinates": [ [ [ -4.351751666605959, 50.366666666692829 ], [ -4.215000000035437, 50.366666666692829 ], [ -4.215000000035437, 50.26777666668427 ], [ -4.351751666605959, 50.26777666668427 ], [ -4.351751666605959, 50.366666666692829 ] ] ] } },
{ "type": "Feature", "properties": { "comments": "Needs supression in 4k area and possibly 8k area", "Chart": "GB1031", "Panel_Name": "Plymouth Sound and Approaches", "Pan_Scale": 12500, "Panel_ID": 0, "Paper_Size": "DE", "GTL": "Ash" }, "geometry": { "type": "Polygon", "coordinates": [ [ [ -4.227833333350787, 50.364500000003531 ], [ -4.055903333400824, 50.364500000003531 ], [ -4.055903333400824, 50.299323333363546 ], [ -4.227833333350787, 50.299323333363546 ], [ -4.227833333350787, 50.364500000003531 ] ] ] } },
{ "type": "Feature", "properties": { "comments": "plan on Plymouth Sound and Approaches Chart", "Chart": "GB1031", "Panel_Name": "River Yealm", "Pan_Scale": 12500, "Panel_ID": 1, "Paper_Size": "DE", "GTL": "Ash" }, "geometry": { "type": "Polygon", "coordinates": [ [ [ -4.069999999975032, 50.347499999989871 ], [ -4.023333333284064, 50.347499999989871 ], [ -4.023333333284064, 50.308333333309299 ], [ -4.069999999975032, 50.308333333309299 ], [ -4.069999999975032, 50.347499999989871 ] ] ] } },
{ "type": "Feature", "properties": { "comments": "plan on Cattewater Chart", "Chart": "GB1039", "Panel_Name": "Hooe Lake", "Pan_Scale": 5000, "Panel_ID": 2, "Paper_Size": "A2", "GTL": "Ash" }, "geometry": { "type": "Polygon", "coordinates": [ [ [ -4.114166666601776, 50.358833333334722 ], [ -4.105166666737027, 50.358833333334722 ], [ -4.105166666737027, 50.354166666648545 ], [ -4.114166666601776, 50.354166666648545 ], [ -4.114166666601776, 50.358833333334722 ] ] ] } },
{ "type": "Feature", "properties": { "comments": "plan on Cattewater Chart", "Chart": "GB1039", "Panel_Name": "River Plym", "Pan_Scale": 15000, "Panel_ID": 1, "Paper_Size": "A2", "GTL": "Ash" }, "geometry": { "type": "Polygon", "coordinates": [ [ [ -4.111666666678497, 50.38999999996301 ], [ -4.08250000001426, 50.38999999996301 ], [ -4.08250000001426, 50.368333333370849 ], [ -4.111666666678497, 50.368333333370849 ], [ -4.111666666678497, 50.38999999996301 ] ] ] } },
{ "type": "Feature", "properties": { "comments": null, "Chart": "GB1039", "Panel_Name": "Cattewater", "Pan_Scale": 5000, "Panel_ID": 0, "Paper_Size": "A2", "GTL": "Ash" }, "geometry": { "type": "Polygon", "coordinates": [ [ [ -4.136666666616009, 50.37083333332383 ], [ -4.097319999971016, 50.37083333332383 ], [ -4.097319999971016, 50.357348333359866 ], [ -4.136666666616009, 50.357348333359866 ], [ -4.136666666616009, 50.37083333332383 ] ] ] } },
{ "type": "Feature", "properties": { "comments": null, "Chart": "GB1032", "Panel_Name": "Smeaton Pass and The Narrows", "Pan_Scale": 5000, "Panel_ID": 0, "Paper_Size": "DE", "GTL": "Ash" }, "geometry": { "type": "Polygon", "coordinates": [ [ [ -4.19133833338267, 50.371666666657696 ], [ -4.122500000055224, 50.371666666657696 ], [ -4.122500000055224, 50.345596666630712 ], [ -4.19133833338267, 50.345596666630712 ], [ -4.19133833338267, 50.371666666657696 ] ] ] } },
{ "type": "Feature", "properties": { "comments": "plan on Lynher River Carew Point to Redshank Point Chart", "Chart": "GB1035", "Panel_Name": "Millbrook Lake", "Pan_Scale": 7500, "Panel_ID": 1, "Paper_Size": "A2", "GTL": "Ash" }, "geometry": { "type": "Polygon", "coordinates": [ [ [ -4.213333333372938, 50.356666666669852 ], [ -4.186666666631978, 50.356666666669852 ], [ -4.186666666631978, 50.346666666647927 ], [ -4.213333333372938, 50.346666666647927 ], [ -4.213333333372938, 50.356666666669852 ] ] ] } },
{ "type": "Feature", "properties": { "comments": null, "Chart": "GB1033", "Panel_Name": "Hamoaze", "Pan_Scale": 5000, "Panel_ID": 0, "Paper_Size": "DE", "GTL": "Ash" }, "geometry": { "type": "Polygon", "coordinates": [ [ [ -4.220798333290429, 50.394471666671713 ], [ -4.175833333396196, 50.394471666671713 ], [ -4.175833333396196, 50.354916666658006 ], [ -4.220798333290429, 50.354916666658006 ], [ -4.220798333290429, 50.394471666671713 ] ] ] } },
{ "type": "Feature", "properties": { "comments": null, "Chart": "GB1034", "Panel_Name": "River Tamar Carew Point to Ernesettle Pier", "Pan_Scale": 5000, "Panel_ID": 0, "Paper_Size": "A2", "GTL": "Ash" }, "geometry": { "type": "Polygon", "coordinates": [ [ [ -4.219088333376734, 50.412333333294477 ], [ -4.19166666661948, 50.412333333294477 ], [ -4.19166666661948, 50.392555000044496 ], [ -4.219088333376734, 50.392555000044496 ], [ -4.219088333376734, 50.412333333294477 ] ] ] } },
{ "type": "Feature", "properties": { "comments": "Some supression needed for 4k area", "Chart": "GB1035", "Panel_Name": "Lynher River Carew Point to Redshank Point", "Pan_Scale": 12500, "Panel_ID": 0, "Paper_Size": "A2", "GTL": "Ash" }, "geometry": { "type": "Polygon", "coordinates": [ [ [ -4.280020000030214, 50.417776666678797 ], [ -4.211500000001902, 50.417776666678797 ], [ -4.211500000001902, 50.368333333370849 ], [ -4.280020000030214, 50.368333333370849 ], [ -4.280020000030214, 50.417776666678797 ] ] ] } },
{ "type": "Feature", "properties": { "comments": null, "Chart": "GB1036", "Panel_Name": "Lynher River Warren Point to Tideford", "Pan_Scale": 12500, "Panel_ID": 0, "Paper_Size": "A2", "GTL": "Ash" }, "geometry": { "type": "Polygon", "coordinates": [ [ [ -4.335189999960814, 50.369999999967554 ], [ -4.335189999960814, 50.419443333366971 ], [ -4.266666666713907, 50.419443333366971 ], [ -4.266666666713907, 50.369999999967554 ], [ -4.335189999960814, 50.369999999967554 ] ] ] } },
{ "type": "Feature", "properties": { "comments": "plan on Lynher River Warren Point to Tideford Chart", "Chart": "GB1036", "Panel_Name": "Lynher River continuation to Notter Bridge", "Pan_Scale": 12500, "Panel_ID": 1, "Paper_Size": "A2", "GTL": "Ash" }, "geometry": { "type": "Polygon", "coordinates": [ [ [ -4.27916666661219, 50.425499999976722 ], [ -4.268333333376408, 50.425499999976722 ], [ -4.268333333376408, 50.416666666659538 ], [ -4.27916666661219, 50.416666666659538 ], [ -4.27916666661219, 50.425499999976722 ] ] ] } },
{ "type": "Feature", "properties": { "comments": null, "Chart": "GB1037", "Panel_Name": "Ernesettle Pier to Cargreen and River Tavy", "Pan_Scale": 12500, "Panel_ID": 0, "Paper_Size": "A2", "GTL": "Ash" }, "geometry": { "type": "Polygon", "coordinates": [ [ [ -4.217499999958716, 50.407499999991657 ], [ -4.217499999958716, 50.456943333333911 ], [ -4.148923333381991, 50.456943333333911 ], [ -4.148923333381991, 50.407499999991657 ], [ -4.217499999958716, 50.407499999991657 ] ] ] } },
{ "type": "Feature", "properties": { "comments": "plan on River Tamar Ernesettle Pier to Cargreen and River Tavy Chart", "Chart": "GB1037", "Panel_Name": "River Tavy Continuation", "Pan_Scale": 12500, "Panel_ID": 1, "Paper_Size": "A2", "GTL": "Ash" }, "geometry": { "type": "Polygon", "coordinates": [ [ [ -4.161666666694465, 50.466666666670463 ], [ -4.14833333339446, 50.466666666670463 ], [ -4.14833333339446, 50.455666666654444 ], [ -4.161666666694465, 50.455666666654444 ], [ -4.161666666694465, 50.466666666670463 ] ] ] } },
{ "type": "Feature", "properties": { "comments": null, "Chart": "GB1038", "Panel_Name": "River Tamar Weir Quay to Calstock", "Pan_Scale": 12500, "Panel_ID": 0, "Paper_Size": "A2", "GTL": "Ash" }, "geometry": { "type": "Polygon", "coordinates": [ [ [ -4.19166666661948, 50.499166666645863 ], [ -4.19166666661948, 50.449723333291679 ], [ -4.260305000065819, 50.449723333291679 ], [ -4.260305000065819, 50.499166666645863 ], [ -4.19166666661948, 50.499166666645863 ] ] ] } },
{ "type": "Feature", "properties": { "comments": "plan on River Tamar Weir Quay to Calstock Chart", "Chart": "GB1038", "Panel_Name": "River Tamar Calstock to Gunnislake", "Pan_Scale": 20000, "Panel_ID": 1, "Paper_Size": "A2", "GTL": "Ash" }, "geometry": { "type": "Polygon", "coordinates": [ [ [ -4.214999999979739, 50.532333333355041 ], [ -4.178333333302659, 50.532333333355041 ], [ -4.178333333302659, 50.4911666666383 ], [ -4.214999999979739, 50.4911666666383 ], [ -4.214999999979739, 50.532333333355041 ] ] ] } },
{ "type": "Feature", "properties": { "comments": null, "Chart": "GB102", "Panel_Name": "Eddystone Rocks", "Pan_Scale": 7500, "Panel_ID": 1, "Paper_Size": "DE", "GTL": "Ash" }, "geometry": { "type": "Polygon", "coordinates": [ [ [ -4.274166666624688, 50.185666666691965 ], [ -4.256666666597957, 50.185666666691965 ], [ -4.256666666597957, 50.178666666702675 ], [ -4.274166666624688, 50.178666666702675 ], [ -4.274166666624688, 50.185666666691965 ] ] ] } },
{ "type": "Feature", "properties": { "comments": null, "Chart": "GB102", "Panel_Name": "Dodman Point to Berry Head", "Pan_Scale": 100000, "Panel_ID": 0, "Paper_Size": "DE", "GTL": "Ash" }, "geometry": { "type": "Polygon", "coordinates": [ [ [ -4.877030397436898, 50.377003360175941 ], [ -3.495765397506015, 50.377003360175941 ], [ -3.495765397506015, 49.851338050093965 ], [ -4.877030397436898, 49.851338050093965 ], [ -4.877030397436898, 50.377003360175941 ] ] ] } },
{ "type": "Feature", "properties": { "comments": null, "Chart": "GB503", "Panel_Name": "Continuation to Sharpness", "Pan_Scale": 100000, "Panel_ID": 1, "Paper_Size": "DE", "GTL": "James" }, "geometry": { "type": "Polygon", "coordinates": [ [ [ -2.679999999926006, 51.628333333336101 ], [ -2.679999999926006, 51.787666666651241 ], [ -2.358333333363288, 51.787666666651241 ], [ -2.358333333363288, 51.628333333336101 ], [ -2.679999999926006, 51.628333333336101 ] ] ] } },
{ "type": "Feature", "properties": { "comments": null, "Chart": "GB503", "Panel_Name": "Bristol Channel - Lynmouth to Avonmouth", "Pan_Scale": 100000, "Panel_ID": 0, "Paper_Size": "DE", "GTL": "James" }, "geometry": { "type": "Polygon", "coordinates": [ [ [ -3.874999999942832, 51.133333333347053 ], [ -3.874999999942832, 51.650245000035014 ], [ -2.478941666702913, 51.650245000035014 ], [ -2.478941666702913, 51.133333333347053 ], [ -3.874999999942832, 51.133333333347053 ] ] ] } },
{ "type": "Feature", "properties": { "comments": null, "Chart": "GB502", "Panel_Name": "Bristol Channel - Lundy to Lynmouth", "Pan_Scale": 100000, "Panel_ID": 0, "Paper_Size": "DE", "GTL": "James" }, "geometry": { "type": "Polygon", "coordinates": [ [ [ -4.696666666752539, 50.966666666678059 ], [ -4.696666666752539, 51.751495000003302 ], [ -3.784954999971326, 51.751495000003302 ], [ -3.784954999971326, 50.966666666678059 ], [ -4.696666666752539, 50.966666666678059 ] ] ] } },
{ "type": "Feature", "properties": { "comments": null, "Chart": "GB502", "Panel_Name": "Continuation to Caernarfon", "Pan_Scale": 100000, "Panel_ID": 1, "Paper_Size": "DE", "GTL": "James" }, "geometry": { "type": "Polygon", "coordinates": [ [ [ -4.508333333350067, 51.716666666700263 ], [ -4.508333333350067, 51.863333333285517 ], [ -4.266666666683498, 51.863333333285517 ], [ -4.266666666683498, 51.716666666700263 ], [ -4.508333333350067, 51.716666666700263 ] ] ] } },
{ "type": "Feature", "properties": { "comments": null, "Chart": "GB501", "Panel_Name": "Trevose Head to Lundy", "Pan_Scale": 100000, "Panel_ID": 0, "Paper_Size": "DE", "GTL": "James" }, "geometry": { "type": "Polygon", "coordinates": [ [ [ -5.399999999979299, 50.499999999968317 ], [ -5.399999999979299, 51.292773333282476 ], [ -4.488288333377298, 51.292773333282476 ], [ -4.488288333377298, 50.499999999968317 ], [ -5.399999999979299, 50.499999999968317 ] ] ] } },
{ "type": "Feature", "properties": { "comments": null, "Chart": "GB500", "Panel_Name": "Lands End to Newquay", "Pan_Scale": 100000, "Panel_ID": 0, "Paper_Size": "DE", "GTL": "James" }, "geometry": { "type": "Polygon", "coordinates": [ [ [ -6.410000000012264, 50.028333333351029 ], [ -6.410000000012264, 50.557629999983689 ], [ -5.013941666593135, 50.557629999983689 ], [ -5.013941666593135, 50.028333333351029 ], [ -6.410000000012264, 50.028333333351029 ] ] ] } },
{ "type": "Feature", "properties": { "comments": null, "Chart": "GB100", "Panel_Name": "Scilly Isles to Lands End", "Pan_Scale": 100000, "Panel_ID": 0, "Paper_Size": "DE", "GTL": "James" }, "geometry": { "type": "Polygon", "coordinates": [ [ [ -6.920666666625335, 49.581333333311854 ], [ -6.920666666625335, 50.115586666644049 ], [ -5.524608333385417, 50.115586666644049 ], [ -5.524608333385417, 49.581333333311854 ], [ -6.920666666625335, 49.581333333311854 ] ] ] } },
{ "type": "Feature", "properties": { "comments": null, "Chart": "GB101", "Panel_Name": "Penzance to Falmouth", "Pan_Scale": 100000, "Panel_ID": 0, "Paper_Size": "DE", "GTL": "James" }, "geometry": { "type": "Polygon", "coordinates": [ [ [ -5.616666666633519, 49.433333333302798 ], [ -5.616666666633519, 50.244075000017524 ], [ -4.704955000031519, 50.244075000017524 ], [ -4.704955000031519, 49.433333333302798 ], [ -5.616666666633519, 49.433333333302798 ] ] ] } },
{ "type": "Feature", "properties": { "comments": null, "Chart": "GB1003", "Panel_Name": "Lands End", "Pan_Scale": 25000, "Panel_ID": 0, "Paper_Size": "A2", "GTL": "James" }, "geometry": { "type": "Polygon", "coordinates": [ [ [ -5.761666666641709, 49.999999999963087 ], [ -5.761666666641709, 50.098999999961606 ], [ -5.625666666727942, 50.098999999961606 ], [ -5.625666666727942, 49.999999999963087 ], [ -5.761666666641709, 49.999999999963087 ] ] ] } },
{ "type": "Feature", "properties": { "comments": null, "Chart": "GB1004", "Panel_Name": "Longships", "Pan_Scale": 12500, "Panel_ID": 1, "Paper_Size": "A2", "GTL": "James" }, "geometry": { "type": "Polygon", "coordinates": [ [ [ -5.750166666712737, 50.057833333294134 ], [ -5.750166666712737, 50.091546666709775 ], [ -5.693333333338232, 50.091546666709775 ], [ -5.693333333338232, 50.057833333294134 ], [ -5.750166666712737, 50.057833333294134 ] ] ] } },
{ "type": "Feature", "properties": { "comments": null, "Chart": "GB1004", "Panel_Name": "Runnel Stone", "Pan_Scale": 12500, "Panel_ID": 2, "Paper_Size": "A2", "GTL": "James" }, "geometry": { "type": "Polygon", "coordinates": [ [ [ -5.685999999995038, 50.018500000037811 ], [ -5.685999999995038, 50.052213333351936 ], [ -5.647103333364424, 50.052213333351936 ], [ -5.647103333364424, 50.018500000037811 ], [ -5.685999999995038, 50.018500000037811 ] ] ] } },
{ "type": "Feature", "properties": { "comments": null, "Chart": "GB1005", "Panel_Name": "Penlee Point to Merthen Point", "Pan_Scale": 25000, "Panel_ID": 0, "Paper_Size": "A2", "GTL": "James" }, "geometry": { "type": "Polygon", "coordinates": [ [ [ -5.633333333347256, 49.999999999963087 ], [ -5.633333333347256, 50.098893333361588 ], [ -5.497341666691396, 50.098893333361588 ], [ -5.497341666691396, 49.999999999963087 ], [ -5.633333333347256, 49.999999999963087 ] ] ] } },
{ "type": "Feature", "properties": { "comments": null, "Chart": "GB1005", "Panel_Name": "Mousehole", "Pan_Scale": 5000, "Panel_ID": 1, "Paper_Size": "A2", "GTL": "James" }, "geometry": { "type": "Polygon", "coordinates": [ [ [ -5.539683333345957, 50.07890000003534 ], [ -5.539683333345957, 50.084783333339267 ], [ -5.531766666734315, 50.084783333339267 ], [ -5.531766666734315, 50.07890000003534 ], [ -5.539683333345957, 50.07890000003534 ] ] ] } },
{ "type": "Feature", "properties": { "comments": null, "Chart": "GB1006", "Panel_Name": "Penzance Bay", "Pan_Scale": 12500, "Panel_ID": 0, "Paper_Size": "A2", "GTL": "James" }, "geometry": { "type": "Polygon", "coordinates": [ [ [ -5.570161666700503, 50.095333333368053 ], [ -5.570161666700503, 50.129046666647888 ], [ -5.472333333355031, 50.129046666647888 ], [ -5.472333333355031, 50.095333333368053 ], [ -5.570161666700503, 50.095333333368053 ] ] ] } },
{ "type": "Feature", "properties": { "comments": null, "Chart": "GB1006", "Panel_Name": "Newlyn", "Pan_Scale": 5000, "Panel_ID": 1, "Paper_Size": "A2", "GTL": "James" }, "geometry": { "type": "Polygon", "coordinates": [ [ [ -5.550083333365065, 50.100900000029846 ], [ -5.550083333365065, 50.10683333330762 ], [ -5.542149999955718, 50.10683333330762 ], [ -5.542149999955718, 50.100900000029846 ], [ -5.550083333365065, 50.100900000029846 ] ] ] } },
{ "type": "Feature", "properties": { "comments": null, "Chart": "GB1006", "Panel_Name": "Penzance", "Pan_Scale": 5000, "Panel_ID": 2, "Paper_Size": "A2", "GTL": "James" }, "geometry": { "type": "Polygon", "coordinates": [ [ [ -5.53431666662787, 50.115583333338655 ], [ -5.53431666662787, 50.121449999985494 ], [ -5.527666666634626, 50.121449999985494 ], [ -5.527666666634626, 50.115583333338655 ], [ -5.53431666662787, 50.115583333338655 ] ] ] } },
{ "type": "Feature", "properties": { "comments": null, "Chart": "GB1007", "Panel_Name": "Approaches to Porthleven", "Pan_Scale": 25000, "Panel_ID": 0, "Paper_Size": "A2", "GTL": "James" }, "geometry": { "type": "Polygon", "coordinates": [ [ [ -5.450000000049331, 50.050000000020482 ], [ -5.450000000049331, 50.117426666672692 ], [ -5.254528333403452, 50.117426666672692 ], [ -5.254528333403452, 50.050000000020482 ], [ -5.450000000049331, 50.050000000020482 ] ] ] } },
{ "type": "Feature", "properties": { "comments": null, "Chart": "GB1007", "Panel_Name": "Porthleven", "Pan_Scale": 5000, "Panel_ID": 1, "Paper_Size": "A2", "GTL": "James" }, "geometry": { "type": "Polygon", "coordinates": [ [ [ -5.324283333275469, 50.079916666702886 ], [ -5.324283333275469, 50.085466666675984 ], [ -5.315183333329222, 50.085466666675984 ], [ -5.315183333329222, 50.079916666702886 ], [ -5.324283333275469, 50.079916666702886 ] ] ] } },
{ "type": "Feature", "properties": { "comments": null, "Chart": "GB1008", "Panel_Name": "Approaches to Mullion", "Pan_Scale": 25000, "Panel_ID": 0, "Paper_Size": "A2", "GTL": "James" }, "geometry": { "type": "Polygon", "coordinates": [ [ [ -5.3666666666424, 49.988333333374989 ], [ -5.3666666666424, 50.055761666695346 ], [ -5.171444999988849, 50.055761666695346 ], [ -5.171444999988849, 49.988333333374989 ], [ -5.3666666666424, 49.988333333374989 ] ] ] } },
{ "type": "Feature", "properties": { "comments": null, "Chart": "GB1008", "Panel_Name": "Mullion", "Pan_Scale": 5000, "Panel_ID": 1, "Paper_Size": "A2", "GTL": "James" }, "geometry": { "type": "Polygon", "coordinates": [ [ [ -5.271966666701514, 50.010399999994448 ], [ -5.271966666701514, 50.015950000000508 ], [ -5.257016666709283, 50.015950000000508 ], [ -5.257016666709283, 50.010399999994448 ], [ -5.271966666701514, 50.010399999994448 ] ] ] } },
{ "type": "Feature", "properties": { "comments": null, "Chart": "GB5000", "Panel_Name": "St Ives", "Pan_Scale": 25000, "Panel_ID": 0, "Paper_Size": "A2", "GTL": "James" }, "geometry": { "type": "Polygon", "coordinates": [ [ [ -5.50416666666234, 50.174000000025607 ], [ -5.504166666634561, 50.272891666697802 ], [ -5.367681666730035, 50.272891666706911 ], [ -5.367681666642134, 50.174000000023739 ], [ -5.50416666666234, 50.174000000025607 ] ] ] } },
{ "type": "Feature", "properties": { "comments": null, "Chart": "GB5001", "Panel_Name": "Newquay", "Pan_Scale": 12500, "Panel_ID": 0, "Paper_Size": "A2", "GTL": "James" }, "geometry": { "type": "Polygon", "coordinates": [ [ [ -5.142000000025698, 50.402833333328793 ], [ -5.142000000016142, 50.436544999964113 ], [ -5.043539999942801, 50.436545000028978 ], [ -5.043540000008608, 50.402833333341086 ], [ -5.142000000025698, 50.402833333328793 ] ] ] } },
{ "type": "Feature", "properties": { "comments": null, "Chart": "GB5002", "Panel_Name": "Approaches to Padstow", "Pan_Scale": 25000, "Panel_ID": 0, "Paper_Size": "A2", "GTL": "James" }, "geometry": { "type": "Polygon", "coordinates": [ [ [ -4.966666666709684, 50.511666666637844 ], [ -4.966666666607328, 50.610551666633604 ], [ -4.829211666605873, 50.61055166663774 ], [ -4.829211666678471, 50.511666666636188 ], [ -4.966666666709684, 50.511666666637844 ] ] ] } },
{ "type": "Feature", "properties": { "comments": null, "Chart": "GB5002", "Panel_Name": "Padstow", "Pan_Scale": 10000, "Panel_ID": 0, "Paper_Size": "A2", "GTL": "James" }, "geometry": { "type": "Polygon", "coordinates": [ [ [ -4.938333333273314, 50.537666666697653 ], [ -4.938333333336515, 50.553683333342455 ], [ -4.918333333342753, 50.553683333299155 ], [ -4.918333333274402, 50.537666666634379 ], [ -4.938333333273314, 50.537666666697653 ] ] ] } },
{ "type": "Feature", "properties": { "comments": null, "Chart": "GB5003", "Panel_Name": "Lundy", "Pan_Scale": 25000, "Panel_ID": 0, "Paper_Size": "A2", "GTL": "James" }, "geometry": { "type": "Polygon", "coordinates": [ [ [ -4.74000000004144, 51.135000000017861 ], [ -4.739999999932085, 51.233875000014457 ], [ -4.600701666637213, 51.233874999956917 ], [ -4.600701666695642, 51.134999999987571 ], [ -4.74000000004144, 51.135000000017861 ] ] ] } },
{ "type": "Feature", "properties": { "comments": null, "Chart": "GB5004", "Panel_Name": "Bideford", "Pan_Scale": 25000, "Panel_ID": 0, "Paper_Size": "A2", "GTL": "James" }, "geometry": { "type": "Polygon", "coordinates": [ [ [ -4.271333333325702, 51.015000000021239 ], [ -4.271333333401377, 51.113876666643719 ], [ -4.132394999994073, 51.113876666688469 ], [ -4.132394999978624, 51.015000000014751 ], [ -4.271333333325702, 51.015000000021239 ] ] ] } },
{ "type": "Feature", "properties": { "comments": null, "Chart": "GB5004", "Panel_Name": "Continuation to Barnstaple", "Pan_Scale": 25000, "Panel_ID": 1, "Paper_Size": "A2", "GTL": "James" }, "geometry": { "type": "Polygon", "coordinates": [ [ [ -4.138666666714781, 51.07249999998097 ], [ -4.138666666625468, 51.096333333371042 ], [ -4.057333333319469, 51.096333333319123 ], [ -4.057333333320652, 51.072500000024547 ], [ -4.138666666714781, 51.07249999998097 ] ] ] } },
{ "type": "Feature", "properties": { "comments": "Needs infill", "Chart": "GB5005", "Panel_Name": "Ilfracombe", "Pan_Scale": 12500, "Panel_ID": 0, "Paper_Size": "A2", "GTL": "James" }, "geometry": { "type": "Polygon", "coordinates": [ [ [ -4.127833333280507, 51.204333333354597 ], [ -4.127833333401908, 51.238039999964833 ], [ -4.027674999952023, 51.238040000010699 ], [ -4.027674999981045, 51.204333333368261 ], [ -4.127833333280507, 51.204333333354597 ] ] ] } },
{ "type": "Feature", "properties": { "comments": null, "Chart": "GB5006", "Panel_Name": "Lynmouth", "Pan_Scale": 12500, "Panel_ID": 0, "Paper_Size": "A2", "GTL": "James" }, "geometry": { "type": "Polygon", "coordinates": [ [ [ -3.84466666661426, 51.227666666680612 ], [ -3.844666666604138, 51.27710333334052 ], [ -3.774878333305817, 51.277103333354795 ], [ -3.774878333305881, 51.227666666669606 ], [ -3.84466666661426, 51.227666666680612 ] ] ] } },
{ "type": "Feature", "properties": { "comments": null, "Chart": "GB5007", "Panel_Name": "Porlock", "Pan_Scale": 12500, "Panel_ID": 0, "Paper_Size": "A2", "GTL": "James" }, "geometry": { "type": "Polygon", "coordinates": [ [ [ -3.641666666654194, 51.206833333301127 ], [ -3.641666666679241, 51.256270000007632 ], [ -3.571909999972382, 51.256270000036707 ], [ -3.571910000049714, 51.206833333374121 ], [ -3.641666666654194, 51.206833333301127 ] ] ] } },
{ "type": "Feature", "properties": { "comments": null, "Chart": "GB5008", "Panel_Name": "Minehead", "Pan_Scale": 12500, "Panel_ID": 0, "Paper_Size": "A2", "GTL": "James" }, "geometry": { "type": "Polygon", "coordinates": [ [ [ -3.499999999938716, 51.184999999985131 ], [ -3.500000000062743, 51.234436666644363 ], [ -3.430274999957484, 51.234436666688261 ], [ -3.430274999937498, 51.1849999999909 ], [ -3.499999999938716, 51.184999999985131 ] ] ] } },
{ "type": "Feature", "properties": { "comments": null, "Chart": "GB5009", "Panel_Name": "Watchet", "Pan_Scale": 12500, "Panel_ID": 0, "Paper_Size": "A2", "GTL": "James" }, "geometry": { "type": "Polygon", "coordinates": [ [ [ -3.356000000044104, 51.171666666667257 ], [ -3.356000000067766, 51.221103333376384 ], [ -3.286294999999735, 51.221103333371794 ], [ -3.286295000025149, 51.171666666664677 ], [ -3.356000000044104, 51.171666666667257 ] ] ] } },
{ "type": "Feature", "properties": { "comments": null, "Chart": "GB5010", "Panel_Name": "Bridgwater Bay", "Pan_Scale": 25000, "Panel_ID": 0, "Paper_Size": "DE", "GTL": "James" }, "geometry": { "type": "Polygon", "coordinates": [ [ [ -3.324666666714866, 51.17266666668575 ], [ -3.324666666719866, 51.303000000029655 ], [ -2.974349999953773, 51.302999999977146 ], [ -2.974349999991567, 51.172666666703087 ], [ -3.324666666714866, 51.17266666668575 ] ] ] } },
{ "type": "Feature", "properties": { "comments": null, "Chart": "GB5011", "Panel_Name": "Bristol Channel 1", "Pan_Scale": 25000, "Panel_ID": 0, "Paper_Size": "DE", "GTL": "James" }, "geometry": { "type": "Polygon", "coordinates": [ [ [ -3.325499999960963, 51.278333333297766 ], [ -3.32550000001041, 51.408664999993711 ], [ -2.974380000056165, 51.408664999994123 ], [ -2.974380000024495, 51.278333333293922 ], [ -3.325499999960963, 51.278333333297766 ] ] ] } },
{ "type": "Feature", "properties": { "comments": null, "Chart": "GB5012", "Panel_Name": "Bristol Channel 2", "Pan_Scale": 25000, "Panel_ID": 0, "Paper_Size": "DE", "GTL": "James" }, "geometry": { "type": "Polygon", "coordinates": [ [ [ -3.227333333262021, 51.350833333296414 ], [ -3.227333333355833, 51.481163333326897 ], [ -2.875660000002474, 51.48116333332429 ], [ -2.875660000033929, 51.35083333329046 ], [ -3.227333333262021, 51.350833333296414 ] ] ] } },
{ "type": "Feature", "properties": { "comments": null, "Chart": "GB5013", "Panel_Name": "Bristol Channel 3", "Pan_Scale": 25000, "Panel_ID": 0, "Paper_Size": "DE", "GTL": "James" }, "geometry": { "type": "Polygon", "coordinates": [ [ [ -3.128333333280918, 51.431200000034174 ], [ -3.128333333283071, 51.561528333374056 ], [ -2.776043333336502, 51.561528333325711 ], [ -2.776043333328663, 51.431199999966893 ], [ -3.128333333280918, 51.431200000034174 ] ] ] } },
{ "type": "Feature", "properties": { "comments": null, "Chart": "GB5014", "Panel_Name": "King Road", "Pan_Scale": 10000, "Panel_ID": 0, "Paper_Size": "DE", "GTL": "James" }, "geometry": { "type": "Polygon", "coordinates": [ [ [ -2.780383333335597, 51.481238333355059 ], [ -2.780383333372566, 51.560333333318077 ], [ -2.688256666700506, 51.560333333370686 ], [ -2.688256666681321, 51.481238333362029 ], [ -2.780383333335597, 51.481238333355059 ] ] ] } },
{ "type": "Feature", "properties": { "comments": null, "Chart": "GB5015", "Panel_Name": "River Avon", "Pan_Scale": 10000, "Panel_ID": 0, "Paper_Size": "A2", "GTL": "James" }, "geometry": { "type": "Polygon", "coordinates": [ [ [ -2.706149999958241, 51.465816666660025 ], [ -2.706150000057444, 51.492781666669295 ], [ -2.625565000048877, 51.492781666666751 ], [ -2.62556499994677, 51.465816666664246 ], [ -2.706149999958241, 51.465816666660025 ] ] ] } },
{ "type": "Feature", "properties": { "comments": null, "Chart": "GB5016", "Panel_Name": "City Docks", "Pan_Scale": 5000, "Panel_ID": 0, "Paper_Size": "A2", "GTL": "James" }, "geometry": { "type": "Polygon", "coordinates": [ [ [ -2.627666666657036, 51.444666666693891 ], [ -2.627666666606641, 51.458333333322351 ], [ -2.58716666672709, 51.458333333326571 ], [ -2.587166666667251, 51.444666666652772 ], [ -2.627666666657036, 51.444666666693891 ] ] ] } },
{ "type": "Feature", "properties": { "comments": null, "Chart": "GB5015", "Panel_Name": "Continuation of River Avon", "Pan_Scale": 10000, "Panel_ID": 1, "Paper_Size": "A2", "GTL": "James" }, "geometry": { "type": "Polygon", "coordinates": [ [ [ -2.639516666675187, 51.450491666676655 ], [ -2.639516666680406, 51.469383333349867 ], [ -2.621266666629491, 51.469383333337866 ], [ -2.621266666634731, 51.450491666685224 ], [ -2.639516666675187, 51.450491666676655 ] ] ] } },
{ "type": "Feature", "properties": { "comments": null, "Chart": "GB5016", "Panel_Name": "City Docks to Saint Ann's Bridge", "Pan_Scale": 25000, "Panel_ID": 1, "Paper_Size": "A2", "GTL": "James" }, "geometry": { "type": "Polygon", "coordinates": [ [ [ -2.593999999929012, 51.437000000016617 ], [ -2.593999999982046, 51.462166666655044 ], [ -2.546333333375829, 51.462166666666498 ], [ -2.546333333370386, 51.436999999991023 ], [ -2.593999999929012, 51.437000000016617 ] ] ] } },
{ "type": "Feature", "properties": { "comments": null, "Chart": "GB1000", "Panel_Name": "Isles of Scilly Southern Part", "Pan_Scale": 25000, "Panel_ID": 0, "Paper_Size": "A2", "GTL": "James" }, "geometry": { "type": "Polygon", "coordinates": [ [ [ -6.467833333328767, 49.858166666680887 ], [ -6.467833333328767, 49.925596666631144 ], [ -6.273136666593069, 49.925596666631144 ], [ -6.273136666593069, 49.858166666680887 ], [ -6.467833333328767, 49.858166666680887 ] ] ] } },
{ "type": "Feature", "properties": { "comments": null, "Chart": "GB1001", "Panel_Name": "St Mary's", "Pan_Scale": 12500, "Panel_ID": 0, "Paper_Size": "A2", "GTL": "James" }, "geometry": { "type": "Polygon", "coordinates": [ [ [ -6.360499999973475, 49.895666666686061 ], [ -6.360499999973475, 49.945114999953255 ], [ -6.292651666580773, 49.945114999953255 ], [ -6.292651666580773, 49.895666666686061 ], [ -6.360499999973475, 49.895666666686061 ] ] ] } },
{ "type": "Feature", "properties": { "comments": null, "Chart": "GB1002", "Panel_Name": "Isles of Scilly Northern Part", "Pan_Scale": 25000, "Panel_ID": 0, "Paper_Size": "A2", "GTL": "James" }, "geometry": { "type": "Polygon", "coordinates": [ [ [ -6.416000000022398, 49.921833333338718 ], [ -6.416000000022398, 49.989261666655224 ], [ -6.221046666627266, 49.989261666655224 ], [ -6.221046666627266, 49.921833333338718 ], [ -6.416000000022398, 49.921833333338718 ] ] ] } }
]
}
